[Satellite]
VERSION=1.1
NAME=SUZAKU (ASTRO-EII)
NICKNAME=SUZAKU (ASTRO-EII)
TLE1=1 28773U 05025A   15055.23708059  .00006231  00000-0  35275-3 0  9996
TLE2=2 28773  31.3845 356.6194 0005265 181.8041 325.4766 15.11644542529325
